#aV2019 12 15  0  0  0.00000000     288 DD+AD WGS84 FIT  NGA
## 2084      0.00000000   300.00000000 58832 0.0000000000000
+   32     1  2  3  4  5  6  7  8  9 10 11 12 13 14 15 16 17
+         18 19 20 21 22 23 24 25 26 27 28 29 30 31 32  0  0
+          0  0  0  0  0  0  0  0  0  0  0  0  0  0  0  0  0
+          0  0  0  0  0  0  0  0  0  0  0  0  0  0  0  0  0
+          0  0  0  0  0  0  0  0  0  0  0  0  0  0  0  0  0
++         2  2  2  2  2  2  2  2  2  2  2  2  2  2  2  2  2
++         2  2  2  2  2  2  2  2  2  2  2  2  2  2  2  0  0
++         0  0  0  0  0  0  0  0  0  0  0  0  0  0  0  0  0
++         0  0  0  0  0  0  0  0  0  0  0  0  0  0  0  0  0
++         0  0  0  0  0  0  0  0  0  0  0  0  0  0  0  0  0
%c cc cc ccc ccc cccc cccc cccc cccc ccccc ccccc ccccc ccccc
%c cc cc ccc ccc cccc cccc cccc cccc ccccc ccccc ccccc ccccc
%f  0.0000000  0.000000000  0.00000000000  0.000000000000000
%f  0.0000000  0.000000000  0.00000000000  0.000000000000000
%i    0    0    0    0      0      0      0      0         0
%i    0    0    0    0      0      0      0      0         0
/*      NGA, ST. LOUIS,MO.                                  
/*   EPHEMERIS COMPUTED FROM 2 DAYS OF DATA                 
/*   EPOCHA v5 SMOOTHER                                     
/*   G1762 IERS2010 SATAF SATAPC                            
*  2019 12 15  6 35  0.00000000
P  1  17678.321984   6821.824272  18541.359427   -230.164203                    
V  1  10107.169735  21580.958376 -17074.955763     -0.123256                    
P  2 -14011.381261 -22626.396754     81.727480   -366.621554                    
V  2   2070.319854  -2052.337126  31613.362853     -0.074338                    
P  3  18484.973167  -6099.637005  17969.727218    -53.224777                    
V  3 -10787.028115  20334.061923  18025.777527     -0.067506                    
P  4  26523.040221    735.843170  -1401.199303    -20.828198                    
V  4   1598.489160   2955.834889  31646.150050     -0.046623                    
P  5  -8750.701396 -14297.530279 -20695.639876     -4.716379                    
V  5  13984.682884 -22000.877243   9539.888601     -0.005032                    
P  6  -4326.847869 -23784.106812  11019.349777   -153.966956                    
V  6   8307.787791  11318.940678  27845.333934     -0.111092                    
P  7  11221.326717 -10888.199464 -21129.502931   -170.304796                    
V  7  13371.525993  24142.810532  -5738.981065     -0.082234                    
P  8  24556.191860   6181.448865  -8353.105138    -16.803125                    
V  8 -10620.220834   1973.206543 -29410.417490     -0.012841                    
P  9  22773.039665  -7682.205735 -11367.944749   -108.478316                    
V  9  14317.576197   2877.875913  26856.934599     -0.093522                    
P 10 -10578.429775  23717.323579   5022.214097   -172.746895                    
V 10  -5728.328436   3900.958802 -31123.247791     -0.142027                    
P 11  22687.799619   4637.066640  12228.258018   -418.965730                    
V 11  11173.267152  12825.280517 -24905.842905      0.110463                    
P 12 -17042.290614    600.915899  20097.700149    173.054989                    
V 12  14409.481521 -21666.748896  12891.898739     -0.040178                    
P 13 -18352.175952 -12952.639480 -14355.783068    -26.561147                    
V 13  18046.668379    972.967198 -24081.429750      0.024240                    
P 14   5366.238846  15552.668939  21210.174574    -44.746303                    
V 14 -26053.862545  -2331.433715   8252.080585      0.022417                    
P 15 -25331.656999  -4184.609743  -7837.000542   -265.588021                    
V 15   9262.906620  -3852.489896 -28617.726409      0.026704                    
P 16   5882.762207  15443.184905 -20880.249256   -103.178973                    
V 16 -16418.912006  20344.021291  10951.896543     -0.038643                    
P 17   6766.061111 -14034.735364  21927.535257    180.971723                    
V 17  26633.929678   2781.322352  -6634.255548      0.066620                    
P 18  18598.559278  14117.136149  12240.864153    106.783775                    
V 18   6294.567868  15261.441871 -26006.652560      0.024685                    
P 19  -1529.617473 -14824.566073  21691.340882   -226.132072                    
V 19  27973.819156   3476.573154   4304.248096      0.051762                    
P 20 -14746.740776  21079.417822  -6266.226738    527.657747                    
V 20    -75.761263  -8733.643152 -29862.898921      0.000628                    
P 21  -7594.960074  14795.518671 -19967.031552    -70.697335                    
V 21 -15171.728841 -22515.151373 -10295.629686      0.057677                    
P 22  16479.881754   2145.240754  20919.488081   -777.595735                    
V 22 -11288.288665  23672.137717   6638.369956     -0.019366                    
P 23  26625.838121  -1250.111508  -2129.003799   -149.466370                    
V 23   3061.699451   3096.702078  30952.737184      0.023559                    
P 24 -19141.203924  -8005.391962  16598.091010     -6.232877                    
V 24  -9335.066597 -19312.640959 -19505.145081     -0.005527                    
P 25 -18579.556807  14580.891165  11661.059652    -17.322078                    
V 25   5998.764771 -14212.267154  27087.779259      0.002051                    
P 26   -689.121126  22062.812241 -14640.474846    105.975944                    
V 26 -11520.541922  14897.230055  23228.620152      0.081741                    
P 27  16202.811982  12233.866172 -17405.426592   -150.845858                    
V 27 -21740.303578    495.017533 -19713.345157     -0.116205                    
P 28  11538.022651 -23105.389962   7082.841201    750.534792                    
V 28   6429.319271  -5350.550400 -30413.919058     -0.018822                    
P 29 -23616.746147   5026.595678 -11119.431207     18.181637                    
V 29 -13787.555794  -3128.823737  27918.749853     -0.098801                    
P 30   3154.407941 -20661.518173 -16245.484479   -106.265649                    
V 30  11262.901613  17678.703992 -20454.054539     -0.086205                    
P 31   5373.254213  24287.409411   8599.214927     -9.895494                    
V 31  -7655.270052  -8579.810572  29380.176729     -0.025625                    
P 32  -5647.993677  14889.510879  21298.328351    155.882894                    
V 32 -26915.249270  -1337.999710  -6350.529174      0.113784                    
EOF
